{
    "links": {
        "self": "http://www.neowsapp.com/rest/v1/neo/3892743?api_key=iIulBulltgU6a56xZRHN4H3l9WmuAYTsLGpBGhQ2"
    },
    "id": "3892743",
    "neo_reference_id": "3892743",
    "name": "(2019 VJ4)",
    "designation": "2019 VJ4",
    "nasa_jpl_url": "http://ssd.jpl.nasa.gov/sbdb.cgi?sstr=3892743",
    "absolute_magnitude_h": 23.1,
    "estimated_diameter": {
        "kilometers": {
            "estimated_diameter_min": 0.063760979,
            "estimated_diameter_max": 0.1425738833
        },
        "meters": {
            "estimated_diameter_min": 63.7609789875,
            "estimated_diameter_max": 142.5738833281
        },
        "miles": {
            "estimated_diameter_min": 0.0396192233,
            "estimated_diameter_max": 0.0885912765
        },
        "feet": {
            "estimated_diameter_min": 209.1895703015,
            "estimated_diameter_max": 467.7620993781
        }
    },
    "is_potentially_hazardous_asteroid": false,
    "close_approach_data": [
        {
            "close_approach_date": "2019-10-31",
            "close_approach_date_full": "2019-Oct-31 13:00",
            "epoch_date_close_approach": 1572526800000,
            "relative_velocity": {
                "kilometers_per_second": "24.058705792",
                "kilometers_per_hour": "86611.3408511309",
                "miles_per_hour": "53816.9189860819"
            },
            "miss_distance": {
                "astronomical": "0.0858266",
                "lunar": "33.3865474",
                "kilometers": "12839476.549342",
                "miles": "7978080.7792396"
            },
            "orbiting_body": "Earth"
        }
    ],
    "orbital_data": {
        "orbit_id": "6",
        "orbit_determination_date": "2020-03-27 05:58:02",
        "first_observation_date": "2019-11-05",
        "last_observation_date": "2019-11-24",
        "data_arc_in_days": 19,
        "observations_used": 60,
        "orbit_uncertainty": "8",
        "minimum_orbit_intersection": ".00473391",
        "jupiter_tisserand_invariant": "3.437",
        "epoch_osculation": "2458795.5",
        "eccentricity": ".7869603096726732",
        "semi_major_axis": "1.937729114798958",
        "inclination": "2.748232325455926",
        "ascending_node_longitude": "215.8918527184481",
        "orbital_period": "985.2308991885164",
        "perihelion_distance": ".4128132105550152",
        "perihelion_argument": "76.75738415978857",
        "aphelion_distance": "3.462645019042901",
        "perihelion_time": "2458742.553490584134",
        "mean_anomaly": "19.34647340578854",
        "mean_motion": ".3653965789100944",
        "equinox": "J2000",
        "orbit_class": {
            "orbit_class_type": "APO",
            "orbit_class_description": "Near-Earth asteroid orbits which cross the Earth’s orbit similar to that of 1862 Apollo",
            "orbit_class_range": "a (semi-major axis) > 1.0 AU; q (perihelion) < 1.017 AU"
        }
    },
    "is_sentry_object": false
}